JCSAT-18 (KACIFIC 1)    
1 44868U 19091A   20031.97499793 -.00000194  00000-0  00000+0 0  9997
2 44868   0.0406 262.5462 0001814  55.1489 313.9442  1.00272720   743
ELEKTRO-L 3             
1 44903U 19095A   20032.91111508 -.00000045  00000-0  00000-0 0  9997
2 44903   0.4848 282.2879 0005219  43.7813 299.2752  1.00297146   384
SHIJIAN-20 (SJ-20)      
1 44910U 19097A   20034.29902501 -.00000353  00000-0  00000-0 0  9993
2 44910   0.0787 290.2238 0005076  53.2929  12.2792  1.00269550   388
